{"type": "FeatureCollection", "features": [ {"type": "Feature", "properties": {"norad_id": 35706, "name": "COSMOS 2251 DEB", "group": "cosmos-2251-debris", "lat": 55.33113826018365, "lon": 63.99193229746661, "alt_km": 783.7831460660918, "timestamp": "2025-12-26T23:26:42.520083+00:00", "meta": {"OBJECT_NAME": "COSMOS 2251 DEB", "OBJECT_ID": "1993-036AQB", "EPOCH": "2025-12-21T09:35:04.200288", "MEAN_MOTION": 13.65940195, "ECCENTRICITY": 0.03399329, "INCLINATION": 73.889, "RA_OF_ASC_NODE": 48.5024, "ARG_OF_PERICENTER": 96.6435, "MEAN_ANOMALY": 267.3485, "EPHEMERIS_TYPE": 0, "CLASSIFICATION_TYPE": "U", "NORAD_CAT_ID": 35706, "ELEMENT_SET_NO": 999, "REV_AT_EPOCH": 62180, "BSTAR": 0.00062720687, "MEAN_MOTION_DOT": 7.46e-06, "MEAN_MOTION_DDOT": 0}, "tle": {"line1": "1 35706U 93036AQB 25355.39935417  .00000746  00000+0  62721-3 0  9990", "line2": "2 35706  73.8890  48.5024 0339932  96.6435 267.3485 13.65940195621808"}}, "geometry": {"type": "Point", "coordinates": [63.99193229746661, 55.33113826018365]}}, {"type": "Feature", "properties": {"norad_id": 35711, "name": "COSMOS 2251 DEB", "group": "cosmos-2251-debris", "lat": 67.16465362270455, "lon": -29.660531228992316, "alt_km": 734.1798832975028, "timestamp": "2025-12-26T23:26:42.520091+00:00", "meta": {"OBJECT_NAME": "COSMOS 2251 DEB", "OBJECT_ID": "1993-036AQG", "EPOCH": "2025-12-26T06:33:16.354080", "MEAN_MOTION": 14.63833962, "ECCENTRICITY": 0.0085609, "INCLINATION": 74.0438, "RA_OF_ASC_NODE": 194.4903, "ARG_OF_PERICENTER": 292.4398, "MEAN_ANOMALY": 66.7719, "EPHEMERIS_TYPE": 0, "CLASSIFICATION_TYPE": "U", "NORAD_CAT_ID": 35711, "ELEMENT_SET_NO": 999, "REV_AT_EPOCH": 87969, "BSTAR": 0.00022439, "MEAN_MOTION_DOT": 1.201e-05, "MEAN_MOTION_DDOT": 0}, "tle": {"line1": "1 35711U 93036AQG 25360.27310595  .00001201  00000+0  22439-3 0  9992", "line2": "2 35711  74.0438 194.4903 0085609 292.4398  66.7719 14.63833962879690"}}, "geometry": {"type": "Point", "coordinates": [-29.660531228992316, 67.16465362270455]}}, {"type": "Feature", "properties": {"norad_id": 35716, "name": "COSMOS 2251 DEB", "group": "cosmos-2251-debris", "lat": -4.743953648391267, "lon": 165.59598311185695, "alt_km": 633.779306672096, "timestamp": "2025-12-26T23:26:42.520101+00:00", "meta": {"OBJECT_NAME": "COSMOS 2251 DEB", "OBJECT_ID": "1993-036AQM", "EPOCH": "2025-12-23T05:49:55.043616", "MEAN_MOTION": 14.60096888, "ECCENTRICITY": 0.00892359, "INCLINATION": 73.9921, "RA_OF_ASC_NODE": 174.1043, "ARG_OF_PERICENTER": 12.4356, "MEAN_ANOMALY": 164.342, "EPHEMERIS_TYPE": 0, "CLASSIFICATION_TYPE": "U", "NORAD_CAT_ID": 35716, "ELEMENT_SET_NO": 999, "REV_AT_EPOCH": 87780, "BSTAR": 8.3064383e-05, "MEAN_MOTION_DOT": 3.89e-06, "MEAN_MOTION_DDOT": 0}, "tle": {"line1": "1 35716U 93036AQM 25357.24299819  .00000389  00000+0  83064-4 0  9993", "line2": "2 35716  73.9921 174.1043 0089235  12.4356 164.3420 14.60096888877803"}}, "geometry": {"type": "Point", "coordinates": [165.59598311185695, -4.743953648391267]}}, {"type": "Feature", "properties": {"norad_id": 35717, "name": "COSMOS 2251 DEB", "group": "cosmos-2251-debris", "lat": 70.70572546693198, "lon": -42.74842683322118, "alt_km": 723.4437923827791, "timestamp": "2025-12-26T23:26:42.520110+00:00", "meta": {"OBJECT_NAME": "COSMOS 2251 DEB", "OBJECT_ID": "1993-036AQN", "EPOCH": "2025-12-25T21:56:54.451104", "MEAN_MOTION": 14.3857779, "ECCENTRICITY": 0.0077684, "INCLINATION": 74.1589, "RA_OF_ASC_NODE": 193.3922, "ARG_OF_PERICENTER": 48.9247, "MEAN_ANOMALY": 311.8583, "EPHEMERIS_TYPE": 0, "CLASSIFICATION_TYPE": "U", "NORAD_CAT_ID": 35717, "ELEMENT_SET_NO": 999, "REV_AT_EPOCH": 74289, "BSTAR": 0.0010482, "MEAN_MOTION_DOT": 3.298e-05, "MEAN_MOTION_DDOT": 0}, "tle": {"line1": "1 35717U 93036AQN 25359.91451911  .00003298  00000+0  10482-2 0  9997", "line2": "2 35717  74.1589 193.3922 0077684  48.9247 311.8583 14.38577790742894"}}, "geometry": {"type": "Point", "coordinates": [-42.74842683322118, 70.70572546693198]}}, {"type": "Feature", "properties": {"norad_id": 35718, "name": "COSMOS 2251 DEB", "group": "cosmos-2251-debris", "lat": -44.93119309912239, "lon": 85.81840440736264, "alt_km": 677.3612450750798, "timestamp": "2025-12-26T23:26:42.520119+00:00", "meta": {"OBJECT_NAME": "COSMOS 2251 DEB", "OBJECT_ID": "1993-036AQP", "EPOCH": "2025-12-25T13:20:05.416800", "MEAN_MOTION": 14.68890562, "ECCENTRICITY": 0.0009535, "INCLINATION": 74.0321, "RA_OF_ASC_NODE": 105.1659, "ARG_OF_PERICENTER": 151.5106, "MEAN_ANOMALY": 208.6587, "EPHEMERIS_TYPE": 0, "CLASSIFICATION_TYPE": "U", "NORAD_CAT_ID": 35718, "ELEMENT_SET_NO": 999, "REV_AT_EPOCH": 66028, "BSTAR": 0.0018343, "MEAN_MOTION_DOT": 0.00010721, "MEAN_MOTION_DDOT": 0}, "tle": {"line1": "1 35718U 93036AQP 25359.55561825  .00010721  00000+0  18343-2 0  9997", "line2": "2 35718  74.0321 105.1659 0009535 151.5106 208.6587 14.68890562660288"}}, "geometry": {"type": "Point", "coordinates": [85.81840440736264, -44.93119309912239]}}, {"type": "Feature", "properties": {"norad_id": 35721, "name": "COSMOS 2251 DEB", "group": "cosmos-2251-debris", "lat": 16.124855328261695, "lon": 156.3054443336339, "alt_km": 761.0598323265986, "timestamp": "2025-12-26T23:26:42.520128+00:00", "meta": {"OBJECT_NAME": "COSMOS 2251 DEB", "OBJECT_ID": "1993-036AQS", "EPOCH": "2025-12-09T19:36:39.465216", "MEAN_MOTION": 14.34317214, "ECCENTRICITY": 0.01465875, "INCLINATION": 73.9489, "RA_OF_ASC_NODE": 183.1196, "ARG_OF_PERICENTER": 330.1589, "MEAN_ANOMALY": 29.126, "EPHEMERIS_TYPE": 0, "CLASSIFICATION_TYPE": "U", "NORAD_CAT_ID": 35721, "ELEMENT_SET_NO": 999, "REV_AT_EPOCH": 57747, "BSTAR": 0.0018396061, "MEAN_MOTION_DOT": 5.808e-05, "MEAN_MOTION_DDOT": 0}, "tle": {"line1": "1 35721U 93036AQS 25343.81712344  .00005808  00000+0  18396-2 0  9995", "line2": "2 35721  73.9489 183.1196 0146587 330.1589  29.1260 14.34317214577479"}}, "geometry": {"type": "Point", "coordinates": [156.3054443336339, 16.124855328261695]}}, {"type": "Feature", "properties": {"norad_id": 35724, "name": "COSMOS 2251 DEB", "group": "cosmos-2251-debris", "lat": 73.23145724295057, "lon": 23.73741748514141, "alt_km": 655.261502768336, "timestamp": "2025-12-26T23:26:42.520136+00:00", "meta": {"OBJECT_NAME": "COSMOS 2251 DEB", "OBJECT_ID": "1993-036AQV", "EPOCH": "2025-12-26T03:15:24.595776", "MEAN_MOTION": 14.58230246, "ECCENTRICITY": 0.00590933, "INCLINATION": 74.0325, "RA_OF_ASC_NODE": 277.1841, "ARG_OF_PERICENTER": 66.8711, "MEAN_ANOMALY": 293.8665, "EPHEMERIS_TYPE": 0, "CLASSIFICATION_TYPE": "U", "NORAD_CAT_ID": 35724, "ELEMENT_SET_NO": 999, "REV_AT_EPOCH": 87724, "BSTAR": 0.00025889274, "MEAN_MOTION_DOT": 1.194e-05, "MEAN_MOTION_DDOT": 0}, "tle": {"line1": "1 35724U 93036AQV 25360.13570134  .00001194  00000+0  25889-3 0  9991", "line2": "2 35724  74.0325 277.1841 0059093  66.8711 293.8665 14.58230246877241"}}, "geometry": {"type": "Point", "coordinates": [23.73741748514141, 73.23145724295057]}}, {"type": "Feature", "properties": {"norad_id": 35759, "name": "COSMOS 2251 DEB", "group": "cosmos-2251-debris", "lat": -60.55614762107058, "lon": 158.19405309351336, "alt_km": 630.0544382539092, "timestamp": "2025-12-26T23:26:42.520145+00:00", "meta": {"OBJECT_NAME": "COSMOS 2251 DEB", "OBJECT_ID": "1993-036ARD", "EPOCH": "2025-12-26T18:49:12.656064", "MEAN_MOTION": 14.64931508, "ECCENTRICITY": 0.0077428, "INCLINATION": 74.0357, "RA_OF_ASC_NODE": 189.037, "ARG_OF_PERICENTER": 304.0925, "MEAN_ANOMALY": 55.2911, "EPHEMERIS_TYPE": 0, "CLASSIFICATION_TYPE": "U", "NORAD_CAT_ID": 35759, "ELEMENT_SET_NO": 999, "REV_AT_EPOCH": 66341, "BSTAR": 0.00025878, "MEAN_MOTION_DOT": 1.413e-05, "MEAN_MOTION_DDOT": 0}, "tle": {"line1": "1 35759U 93036ARD 25360.78417426  .00001413  00000+0  25878-3 0  9996", "line2": "2 35759  74.0357 189.0370 0077428 304.0925  55.2911 14.64931508663410"}}, "geometry": {"type": "Point", "coordinates": [158.19405309351336, -60.55614762107058]}}, {"type": "Feature", "properties": {"norad_id": 35771, "name": "COSMOS 2251 DEB", "group": "cosmos-2251-debris", "lat": -10.592396233299251, "lon": 108.34461084867256, "alt_km": 706.3602574255001, "timestamp": "2025-12-26T23:26:42.520157+00:00", "meta": {"OBJECT_NAME": "COSMOS 2251 DEB", "OBJECT_ID": "1993-036ARR", "EPOCH": "2025-12-15T14:45:16.238592", "MEAN_MOTION": 14.13430046, "ECCENTRICITY": 0.02280549, "INCLINATION": 74.1561, "RA_OF_ASC_NODE": 305.27, "ARG_OF_PERICENTER": 242.9998, "MEAN_ANOMALY": 114.7698, "EPHEMERIS_TYPE": 0, "CLASSIFICATION_TYPE": "U", "NORAD_CAT_ID": 35771, "ELEMENT_SET_NO": 999, "REV_AT_EPOCH": 82901, "BSTAR": 0.0026764238, "MEAN_MOTION_DOT": 6.427e-05, "MEAN_MOTION_DDOT": 0}, "tle": {"line1": "1 35771U 93036ARR 25349.61477128  .00006427  00000+0  26764-2 0  9998", "line2": "2 35771  74.1561 305.2700 0228054 242.9998 114.7698 14.13430046829012"}}, "geometry": {"type": "Point", "coordinates": [108.34461084867256, -10.592396233299251]}}, {"type": "Feature", "properties": {"norad_id": 35773, "name": "COSMOS 2251 DEB", "group": "cosmos-2251-debris", "lat": 33.74268323597213, "lon": -35.442863580514306, "alt_km": 674.8200518644717, "timestamp": "2025-12-26T23:26:42.520166+00:00", "meta": {"OBJECT_NAME": "COSMOS 2251 DEB", "OBJECT_ID": "1993-036ART", "EPOCH": "2025-12-25T22:39:09.707904", "MEAN_MOTION": 14.62141697, "ECCENTRICITY": 0.0045156, "INCLINATION": 74.0084, "RA_OF_ASC_NODE": 315.4935, "ARG_OF_PERICENTER": 111.5767, "MEAN_ANOMALY": 249.022, "EPHEMERIS_TYPE": 0, "CLASSIFICATION_TYPE": "U", "NORAD_CAT_ID": 35773, "ELEMENT_SET_NO": 999, "REV_AT_EPOCH": 87032, "BSTAR": 0.00062756, "MEAN_MOTION_DOT": 3.173e-05, "MEAN_MOTION_DDOT": 0}, "tle": {"line1": "1 35773U 93036ART 25359.94386236  .00003173  00000+0  62756-3 0  9993", "line2": "2 35773  74.0084 315.4935 0045156 111.5767 249.0220 14.62141697870329"}}, "geometry": {"type": "Point", "coordinates": [-35.442863580514306, 33.74268323597213]}}]}